NORAD_CAT_ID,OBJECT_NAME,OBJECT_TYPE,EPOCH,MEAN_MOTION,ECCENTRICITY,INCLINATION,RA_OF_ASC_NODE,ARG_OF_PERICENTER,MEAN_ANOMALY,BSTAR,MEAN_MOTION_DOT,MEAN_MOTION_DDOT,TLE_LINE0,TLE_LINE1,TLE_LINE2,SEMIMAJOR_AXIS,PERIOD,APOGEE,PERIGEE,DECAYED
55310.0,STARLINK-5309,PAYLOAD,2024-06-12 03:47:11,14.98332676,0.0003341,69.9989,166.9389,268.6786,91.3991,5.1213e-05,5.18e-06,0.0,0 STARLINK-5309,1 55310U 23010AT  24164.15777128  .00000518  00000-0  51213-4 0  9995,2 55310  69.9989 166.9389 0003341 268.6786  91.3991 14.98332676 78255,6950.185,96.107,574.372,569.728,0.0
55310.0,STARLINK-5309,PAYLOAD,2024-06-12 06:59:27,14.98333292,0.0003361,69.9989,166.6025,268.9681,91.1093,5.6871e-05,5.86e-06,0.0,0 STARLINK-5309,1 55310U 23010AT  24164.29129057  .00000586  00000-0  56871-4 0  9992,2 55310  69.9989 166.6025 0003361 268.9681  91.1093 14.98333292 78591,6950.183,96.107,574.384,569.712,0.0
55310.0,STARLINK-5309,PAYLOAD,2024-06-12 10:11:43,14.98333974,0.0003355,69.9989,166.2659,269.0149,91.0626,6.3074e-05,6.6e-06,0.0,0 STARLINK-5309,1 55310U 23010AT  24164.42480974  .00000660  00000-0  63074-4 0  9991,2 55310  69.9989 166.2659 0003355 269.0149  91.0626 14.98333974 78615,6950.181,96.107,574.377,569.714,0.0
55310.0,STARLINK-5309,PAYLOAD,2024-06-13 03:49:12,14.98328598,0.0003333,69.9989,164.4144,268.8828,91.195,1.3382e-05,6.7e-07,0.0,0 STARLINK-5309,1 55310U 23010AT  24165.15917377  .00000067  00000-0  13382-4 0  9992,2 55310  69.9989 164.4144 0003333 268.8828  91.1950 14.98328598 78405,6950.197,96.107,574.379,569.746,0.0
55310.0,STARLINK-5309,PAYLOAD,2024-06-13 10:13:44,14.98329204,0.0003352,69.999,163.7412,269.0084,91.0691,2.858e-06,-5.9e-07,0.0,0 STARLINK-5309,1 55310U 23010AT  24165.42621377 -.00000059  00000-0  28580-5 0  9993,2 55310  69.9990 163.7412 0003352 269.0084  91.0691 14.98329204 78760,6950.195,96.107,574.39,569.731,0.0
55310.0,STARLINK-5309,PAYLOAD,2024-06-14 10:15:45,14.98332828,0.0003285,69.9992,161.2168,268.1545,91.9237,2.297e-05,1.81e-06,0.0,0 STARLINK-5309,1 55310U 23010AT  24166.42760996  .00000181  00000-0  22970-4 0  9996,2 55310  69.9992 161.2168 0003285 268.1545  91.9237 14.98332828 78918,6950.184,96.107,574.332,569.766,0.0
55310.0,STARLINK-5309,PAYLOAD,2024-06-14 23:04:50,14.98328298,0.0003269,69.9993,159.8704,268.5522,91.5263,4.6506e-05,4.62e-06,0.0,0 STARLINK-5309,1 55310U 23010AT  24166.96169175  .00000462  00000-0  46506-4 0  9990,2 55310  69.9993 159.8704 0003269 268.5522  91.5263 14.98328298 78998,6950.198,96.107,574.335,569.791,0.0
55310.0,STARLINK-5309,PAYLOAD,2024-06-15 08:41:38,14.9832914,0.0003253,69.9993,158.8603,269.3098,90.7688,5.0152e-05,5.05e-06,0.0,0 STARLINK-5309,1 55310U 23010AT  24167.36225160  .00000505  00000-0  50152-4 0  9992,2 55310  69.9993 158.8603 0003253 269.3098  90.7688 14.98329140 79052,6950.196,96.107,574.321,569.8,0.0
55310.0,STARLINK-5309,PAYLOAD,2024-06-15 23:06:51,14.98330863,0.0003178,69.9995,157.3455,268.4678,91.6117,2.2617e-05,1.77e-06,0.0,0 STARLINK-5309,1 55310U 23010AT  24167.96309126  .00000177  00000-0  22617-4 0  9993,2 55310  69.9995 157.3455 0003178 268.4678  91.6117 14.98330863 79144,6950.19,96.107,574.264,569.846,0.0
55310.0,STARLINK-5309,PAYLOAD,2024-06-16 08:43:39,14.98331736,0.0003182,69.9994,156.3355,268.7343,91.3451,3.0624e-05,2.72e-06,0.0,0 STARLINK-5309,1 55310U 23010AT  24168.36365036  .00000272  00000-0  30624-4 0  9993,2 55310  69.9994 156.3355 0003182 268.7343  91.3451 14.98331736 79203,6950.188,96.107,574.264,569.841,0.0
55310.0,STARLINK-5309,PAYLOAD,2024-06-16 23:08:52,14.98328676,0.0003266,69.999,154.8203,269.4576,90.6209,2.2767e-05,1.79e-06,0.0,0 STARLINK-5309,1 55310U 23010AT  24168.96449208  .00000179  00000-0  22767-4 0  9998,2 55310  69.9990 154.8203 0003266 269.4576  90.6209 14.98328676 79294,6950.197,96.107,574.332,569.792,0.0
55310.0,STARLINK-5309,PAYLOAD,2024-06-17 16:46:19,14.98348057,0.0003167,69.9998,152.9677,266.2793,93.8004,0.00020636,2.371e-05,0.0,0 STARLINK-5309,1 55310U 23010AT  24169.69883268  .00002371  00000-0  20636-3 0  9995,2 55310  69.9998 152.9677 0003167 266.2793  93.8004 14.98348057 79082,6950.137,96.106,574.203,569.801,0.0
55310.0,STARLINK-5309,PAYLOAD,2024-06-17 21:34:42,14.98349856,0.0003495,69.9989,152.4621,265.4913,94.5847,0.00022323,2.573e-05,0.0,0 STARLINK-5309,1 55310U 23010AT  24169.89910774  .00002573  00000-0  22323-3 0  9999,2 55310  69.9989 152.4621 0003495 265.4913  94.5847 14.98349856 79435,6950.131,96.106,574.426,569.567,0.0
55310.0,STARLINK-5309,PAYLOAD,2024-06-18 02:23:05,14.98363972,0.00032,69.999,151.958,273.614,86.4653,0.00035324,4.128e-05,0.0,0 STARLINK-5309,1 55310U 23010AT  24170.09937339  .00004128  00000-0  35324-3 0  9992,2 55310  69.9990 151.9580 0003200 273.6140  86.4653 14.98363972 79140,6950.088,96.105,574.177,569.729,0.0
55310.0,STARLINK-5309,PAYLOAD,2024-06-18 08:47:40,14.98327903,0.0003207,69.9987,151.2851,270.5177,89.5615,-4.9959e-05,-6.89e-06,0.0,0 STARLINK-5309,1 55310U 23010AT  24170.36644561 -.00000689  00000-0 -49959-4 0  9994,2 55310  69.9987 151.2851 0003207 270.5177  89.5615 14.98327903 79183,6950.199,96.107,574.293,569.835,0.0
55310.0,STARLINK-5309,PAYLOAD,2024-06-19 08:49:42,14.98326549,0.0002999,69.9994,148.7609,270.2783,89.8033,-3.5676e-05,-5.19e-06,0.0,0 STARLINK-5309,1 55310U 23010AT  24171.36784746 -.00000519  00000-0 -35676-4 0  9998,2 55310  69.9994 148.7609 0002999 270.2783  89.8033 14.98326549 79339,6950.204,96.107,574.153,569.984,0.0
55310.0,STARLINK-5309,PAYLOAD,2024-06-19 15:14:14,14.98326068,0.0003018,69.9994,148.0874,270.8307,89.2506,-5.2313e-05,-7.17e-06,0.0,0 STARLINK-5309,1 55310U 23010AT  24171.63488846 -.00000717  00000-0 -52313-4 0  9997,2 55310  69.9994 148.0874 0003018 270.8307  89.2506 14.98326068 79691,6950.205,96.107,574.168,569.972,0.0
55310.0,STARLINK-5309,PAYLOAD,2024-06-20 08:51:42,14.98336806,0.0002716,69.9996,146.2362,273.2225,86.8623,-0.00023263,-2.868e-05,0.0,0 STARLINK-5309,1 55310U 23010AT  24172.36924415 -.00002868  00000-0 -23263-3 0  9995,2 55310  69.9996 146.2362 0002716 273.2225  86.8623 14.98336806 79802,6950.172,96.107,573.925,570.149,0.0
55310.0,STARLINK-5309,PAYLOAD,2024-06-20 21:40:47,14.9832265,0.0002813,69.9996,144.8897,270.7231,89.3605,6.0235e-05,6.26e-06,0.0,0 STARLINK-5309,1 55310U 23010AT  24172.90332944  .00000626  00000-0  60235-4 0  9994,2 55310  69.9996 144.8897 0002813 270.7231  89.3605 14.98322650 79884,6950.216,96.107,574.036,570.126,0.0
55310.0,STARLINK-5309,PAYLOAD,2024-06-20 23:16:55,14.98323238,0.0002815,69.9996,144.7216,269.0671,91.0166,6.3952e-05,6.7e-06,0.0,0 STARLINK-5309,1 55310U 23010AT  24172.97008916  .00000670  00000-0  63952-4 0  9998,2 55310  69.9996 144.7216 0002815 269.0671  91.0166 14.98323238 79570,6950.214,96.107,574.035,570.122,0.0
55310.0,STARLINK-5309,PAYLOAD,2024-06-21 07:17:36,14.98325066,0.0002805,69.9996,143.8801,268.6042,91.4796,7.9208e-05,8.52e-06,0.0,0 STARLINK-5309,1 55310U 23010AT  24173.30388919  .00000852  00000-0  79208-4 0  9993,2 55310  69.9996 143.8801 0002805 268.6042  91.4796 14.98325066 79941,6950.208,96.107,574.023,570.124,0.0
55310.0,STARLINK-5309,PAYLOAD,2024-06-22 04:07:21,14.98326514,0.0002803,69.9996,141.6921,264.924,95.1599,7.1291e-05,7.58e-06,0.0,0 STARLINK-5309,1 55310U 23010AT  24174.17177112  .00000758  00000-0  71291-4 0  9999,2 55310  69.9996 141.6921 0002803 264.9240  95.1599 14.98326514 79757,6950.204,96.107,574.017,570.121,0.0
55310.0,STARLINK-5309,PAYLOAD,2024-06-22 07:19:37,14.98327688,0.0002836,69.9995,141.355,267.6567,92.4267,7.9578e-05,8.57e-06,0.0,0 STARLINK-5309,1 55310U 23010AT  24174.30529057  .00000857  00000-0  79578-4 0  9999,2 55310  69.9995 141.3550 0002836 267.6567  92.4267 14.98327688 80093,6950.2,96.107,574.036,570.094,0.0
55310.0,STARLINK-5309,PAYLOAD,2024-06-23 04:09:22,14.98329041,0.0002853,69.9994,139.1666,266.9002,93.183,3.6999e-05,3.48e-06,0.0,0 STARLINK-5309,1 55310U 23010AT  24175.17317200  .00000348  00000-0  36999-4 0  9995,2 55310  69.9994 139.1666 0002853 266.9002  93.1830 14.98329041 79907,6950.196,96.107,574.044,570.078,0.0
55310.0,STARLINK-5309,PAYLOAD,2024-06-23 07:21:38,14.98331162,0.0002831,69.9996,138.8302,266.7779,93.3056,6.0093e-05,6.24e-06,0.0,0 STARLINK-5309,1 55310U 23010AT  24175.30669006  .00000624  00000-0  60093-4 0  9993,2 55310  69.9996 138.8302 0002831 266.7779  93.3056 14.98331162 80245,6950.189,96.107,574.022,570.087,0.0
55310.0,STARLINK-5309,PAYLOAD,2024-06-23 21:46:50,14.98331298,0.0002835,69.9996,137.3153,268.7234,91.36,4.8354e-05,4.84e-06,0.0,0 STARLINK-5309,1 55310U 23010AT  24175.90752993  .00000484  00000-0  48354-4 0  9997,2 55310  69.9996 137.3153 0002835 268.7234  91.3600 14.98331298 80338,6950.189,96.107,574.024,570.083,0.0
55310.0,STARLINK-5309,PAYLOAD,2024-06-24 04:11:22,14.98332109,0.0002821,69.9996,136.6419,268.552,91.5315,5.7055e-05,5.88e-06,0.0,0 STARLINK-5309,1 55310U 23010AT  24176.17456903  .00000588  00000-0  57055-4 0  9992,2 55310  69.9996 136.6419 0002821 268.5520  91.5315 14.98332109 80052,6950.186,96.107,574.012,570.091,0.0
55310.0,STARLINK-5309,PAYLOAD,2024-06-24 07:23:38,14.98334392,0.0002804,69.9997,136.3055,268.8499,91.2339,8.2213e-05,8.88e-06,0.0,0 STARLINK-5309,1 55310U 23010AT  24176.30808670  .00000888  00000-0  82213-4 0  9996,2 55310  69.9997 136.3055 0002804 268.8499  91.2339 14.98334392 80391,6950.179,96.107,573.993,570.095,0.0
55310.0,STARLINK-5309,PAYLOAD,2024-06-24 21:48:51,14.9833102,0.0002679,70.0001,134.7912,266.4195,93.6658,3.4508e-05,3.19e-06,0.0,0 STARLINK-5309,1 55310U 23010AT  24176.90892937  .00000319  00000-0  34508-4 0  9994,2 55310  70.0001 134.7912 0002679 266.4195  93.6658 14.98331020 80486,6950.19,96.107,573.917,570.193,0.0
55310.0,STARLINK-5309,PAYLOAD,2024-06-25 04:13:23,14.98330262,0.0002703,70.0001,134.1183,265.8368,94.2482,2.1195e-05,1.6e-06,0.0,0 STARLINK-5309,1 55310U 23010AT  24177.17597008  .00000160  00000-0  21195-4 0  9997,2 55310  70.0001 134.1183 0002703 265.8368  94.2482 14.98330262 80202,6950.192,96.107,573.936,570.178,0.0
